CRE (WAAS/PRN 138)      
1 28868U 05036A   24003.56256997 -.00000052  00000+0  00000+0 0  9990
2 28868   2.0040  87.6406 0001317 209.3940 260.8586  1.00271870 37472
IOR-W (EGNOS/PRN 126)   
1 28899U 05044A   24003.52500623 -.00000240  00000+0  00000+0 0  9996
2 28899   4.0078  41.7249 0002182 247.0803 146.2420  1.00273237 66546
QZS-1 (QZSS/PRN 183)    
1 37158U 10045A   24002.58320957  .00000010  00000+0  00000+0 0  9990
2 37158  43.0359 126.3181 0003366 128.5792 242.5289  0.87715740 48546
GSAT-8 (GAGAN/PRN 127)  
1 37605U 11022A   24002.88144929  .00000105  00000+0  00000+0 0  9994
2 37605   0.0422 103.7732 0008677 168.8171 201.8091  1.00273177 44236
LUCH 5A (SDCM/PRN 140)  
1 37951U 11074B   24003.59539249 -.00000029  00000+0  00000+0 0  9993
2 37951   6.4564  87.6766 0003059 186.7695 209.4350  1.00271930 44072
SES-5 (EGNOS/PRN 136)   
1 38652U 12036A   23364.90696091  .00000046  00000+0  00000+0 0  9992
2 38652   0.0316 327.6764 0002206 308.5935 154.2816  1.00272632 35462
GSAT-10 (GAGAN/PRN 128) 
1 38779U 12051B   24002.82036660 -.00000144  00000+0  00000+0 0  9990
2 38779   0.0458 269.0404 0004969 357.6545 213.5778  1.00270752 41137
LUCH 5B (SDCM/PRN 125)  
1 38977U 12061A   24001.40688799 -.00000124  00000+0  00000+0 0  9998
2 38977   8.5190  58.1511 0003588 175.6002 356.9563  1.00273101 40618
ASTRA 5B (EGNOS/PRN 123)
1 39617U 14011B   24002.95037289  .00000159  00000+0  00000+0 0  9997
2 39617   0.0485 327.2298 0004176 307.7959 192.6998  1.00275049 35680
LUCH 5V (SDCM/PRN 141)  
1 39727U 14023A   24003.39993750 -.00000248  00000+0  00000+0 0  9995
2 39727   2.8828  76.8885 0003853 217.7057  46.6290  1.00273068 35370
GSAT-15 (GAGAN/PRN 139) 
1 41028U 15065A   24002.85285431 -.00000237  00000+0  00000+0 0  9997
2 41028   0.0225 277.3186 0001946 337.5530 247.6228  1.00271311 29813
E 117 W B (WAAS/PRN 131)
1 41589U 16038B   24003.36433312  .00000012  00000+0  00000+0 0  9990
2 41589   0.0093 162.0082 0000280 221.9831  92.6406  1.00267347 27686
SES-15 (WAAS/PRN 133)   
1 42709U 17026A   24002.19316168  .00000079  00000+0  00000+0 0  9995
2 42709   0.0212  30.6685 0000390 253.9347 117.1053  1.00268356 25143
QZS-2 (QZSS/PRN 184)    
1 42738U 17028A   24003.52153137 -.00000134  00000+0  00000+0 0  9995
2 42738  40.8410 256.1316 0755609 269.6511 266.1170  1.00280075 24157
QZS-3 (QZSS/PRN 189)    
1 42917U 17048A   24003.52054744 -.00000326  00000+0  00000+0 0  9993
2 42917   0.0910 130.5465 0001759 167.1271 119.3510  1.00267328 23279
QZS-4 (QZSS/PRN 185)    
1 42965U 17062A   23364.83460152 -.00000353  00000+0  00000+0 0  9999
2 42965  40.5897 354.9442 0751160 271.8621 267.4745  1.00247499 22790
BEIDOU-3 G1 (PRN 130)   
1 43683U 18085A   24003.52578988 -.00000256  00000+0  00000+0 0  9999
2 43683   1.7929 117.0895 0001168 358.0880 316.7987  1.00268980 19075
BEIDOU-3 G2 (PRN 144)   
1 45344U 20017A   24002.82047476 -.00000121  00000+0  00000+0 0  9999
2 45344   2.1369  22.3703 0003304 250.6025 204.3642  1.00271367 14272
BEIDOU-3 G3 (PRN 143)   
1 45807U 20040A   24003.50697235 -.00000331  00000+0  00000+0 0  9992
2 45807   0.5856  12.0518 0009821 303.3278  80.1844  1.00265263 13096
GALAXY 30 (WAAS/PRN 135)
1 46114U 20056C   24002.62660831  .00000057  00000+0  00000+0 0  9999
2 46114   0.0170  30.3096 0002093 250.5524 281.4690  1.00271511 12308
